{"type":"FeatureCollection","features":[{"type":"Feature","geometry":{"type":"Point","coordinates":[4.210706214616178,52.05397657917419]},"properties":{"numisId":1154792,"locationKey":"74150:452330","authority":"Septimius Severus","dateStart":193,"dateEnd":211}},{"type":"Feature","geometry":{"type":"Point","coordinates":[4.280364838140896,52.096631471611694]},"properties":{"numisId":1047036,"locationKey":"79000:457000","authority":"Severus Alexander","dateStart":222,"dateEnd":228}},{"type":"Feature","geometry":{"type":"Point","coordinates":[6.701610509488099,53.0428189885237]},"properties":{"numisId":1048488,"locationKey":"243000:562500","authority":"Marcus Aurelius","dateStart":169,"dateEnd":170}},{"type":"Feature","geometry":{"type":"Point","coordinates":[6.701610509488099,53.0428189885237]},"properties":{"numisId":1048498,"locationKey":"243000:562500","authority":"Commodus","dateStart":179,"dateEnd":180}},{"type":"Feature","geometry":{"type":"Point","coordinates":[6.701610509488099,53.0428189885237]},"properties":{"numisId":1048506,"locationKey":"243000:562500","authority":"Geta Caesar","dateStart":200,"dateEnd":202}},{"type":"Feature","geometry":{"type":"Point","coordinates":[4.7326693258480725,52.10451857592371]},"properties":{"numisId":1051220,"locationKey":"110000:457500","authority":"Antoninus Pius","dateStart":140,"dateEnd":145}},{"type":"Feature","geometry":{"type":"Point","coordinates":[4.659326305038093,52.12655713149683]},"properties":{"numisId":1002518,"locationKey":"105000:460000","authority":"Antoninus Pius","dateStart":141,"dateEnd":145}},{"type":"Feature","geometry":{"type":"Point","coordinates":[4.659326305038093,52.12655713149683]},"properties":{"numisId":1002549,"locationKey":"105000:460000","authority":"Severus Alexander","dateStart":222,"dateEnd":235}},{"type":"Feature","geometry":{"type":"Point","coordinates":[4.659326305038093,52.12655713149683]},"properties":{"numisId":1002530,"locationKey":"105000:460000","authority":"Maximinus I","dateStart":235,"dateEnd":238}},{"type":"Feature","geometry":{"type":"Point","coordinates":[5.519647139111933,51.68383478244984]},"properties":{"numisId":1176653,"locationKey":"164000:410500","authority":"Trajanus","dateStart":98,"dateEnd":117}},{"type":"Feature","geometry":{"type":"Point","coordinates":[5.450923291491996,51.6551271414353]},"properties":{"numisId":1131280,"locationKey":"159250:407300","authority":"Marcus Aurelius / Commodus","dateStart":160,"dateEnd":192}},{"type":"Feature","geometry":{"type":"Point","coordinates":[5.26485770831773,51.392876923004124]},"properties":{"numisId":1132127,"locationKey":"146324:378130","authority":"Elagabalus","dateStart":218,"dateEnd":222}},{"type":"Feature","geometry":{"type":"Point","coordinates":[5.156210532762487,52.05668726467621]},"properties":{"numisId":1031110,"locationKey":"139000:452000","authority":"Trajanus","dateStart":103,"dateEnd":111}},{"type":"Feature","geometry":{"type":"Point","coordinates":[5.236479904779611,52.03434937043068]},"properties":{"numisId":1032808,"locationKey":"144500:449500","authority":"Trajanus","dateStart":112,"dateEnd":114}},{"type":"Feature","geometry":{"type":"Point","coordinates":[5.156210532762487,52.05668726467621]},"properties":{"numisId":1030975,"locationKey":"139000:452000","authority":"Hadrianus","dateStart":117,"dateEnd":138}},{"type":"Feature","geometry":{"type":"Point","coordinates":[5.156210532762487,52.05668726467621]},"properties":{"numisId":1030479,"locationKey":"139000:452000","authority":"Hadrianus","dateStart":117,"dateEnd":138}},{"type":"Feature","geometry":{"type":"Point","coordinates":[5.156210532762487,52.05668726467621]},"properties":{"numisId":1030871,"locationKey":"139000:452000","authority":"Hadrianus","dateStart":132,"dateEnd":134}},{"type":"Feature","geometry":{"type":"Point","coordinates":[5.156210532762487,52.05668726467621]},"properties":{"numisId":1031201,"locationKey":"139000:452000","authority":"Hadrianus","dateStart":134,"dateEnd":138}},{"type":"Feature","geometry":{"type":"Point","coordinates":[5.156210532762487,52.05668726467621]},"properties":{"numisId":1030501,"locationKey":"139000:452000","authority":"Antoninus Pius","dateStart":138,"dateEnd":161}},{"type":"Feature","geometry":{"type":"Point","coordinates":[5.156210532762487,52.05668726467621]},"properties":{"numisId":1031084,"locationKey":"139000:452000","authority":"Antoninus Pius","dateStart":141,"dateEnd":145}},{"type":"Feature","geometry":{"type":"Point","coordinates":[5.156210532762487,52.05668726467621]},"properties":{"numisId":1031062,"locationKey":"139000:452000","authority":"Antoninus Pius","dateStart":145,"dateEnd":161}},{"type":"Feature","geometry":{"type":"Point","coordinates":[5.156210532762487,52.05668726467621]},"properties":{"numisId":1030527,"locationKey":"139000:452000","authority":"Marcus Aurelius","dateStart":175,"dateEnd":180}},{"type":"Feature","geometry":{"type":"Point","coordinates":[5.156210532762487,52.05668726467621]},"properties":{"numisId":1030533,"locationKey":"139000:452000","authority":"Commodus","dateStart":184,"dateEnd":192}},{"type":"Feature","geometry":{"type":"Point","coordinates":[5.156210532762487,52.05668726467621]},"properties":{"numisId":1030962,"locationKey":"139000:452000","authority":"Pertinax","dateStart":193,"dateEnd":193}},{"type":"Feature","geometry":{"type":"Point","coordinates":[5.156210532762487,52.05668726467621]},"properties":{"numisId":1030539,"locationKey":"139000:452000","authority":"Septimius Severus","dateStart":195,"dateEnd":195}},{"type":"Feature","geometry":{"type":"Point","coordinates":[5.156210532762487,52.05668726467621]},"properties":{"numisId":1030928,"locationKey":"139000:452000","authority":"Septimius Severus","dateStart":196,"dateEnd":196}},{"type":"Feature","geometry":{"type":"Point","coordinates":[5.156210532762487,52.05668726467621]},"properties":{"numisId":1031610,"locationKey":"139000:452000","authority":"Julia Domna","dateStart":196,"dateEnd":211}},{"type":"Feature","geometry":{"type":"Point","coordinates":[5.156210532762487,52.05668726467621]},"properties":{"numisId":1030881,"locationKey":"139000:452000","authority":"Septimius Severus","dateStart":202,"dateEnd":202}},{"type":"Feature","geometry":{"type":"Point","coordinates":[5.156210532762487,52.05668726467621]},"properties":{"numisId":1031222,"locationKey":"139000:452000","authority":"barbaarse navolging van Septimius Severus","dateStart":202,"dateEnd":210}},{"type":"Feature","geometry":{"type":"Point","coordinates":[5.156210532762487,52.05668726467621]},"properties":{"numisId":1030914,"locationKey":"139000:452000","authority":"Septimius Severus","dateStart":206,"dateEnd":206}},{"type":"Feature","geometry":{"type":"Point","coordinates":[5.156210532762487,52.05668726467621]},"properties":{"numisId":1030553,"locationKey":"139000:452000","authority":"Elagabalus","dateStart":222,"dateEnd":222}},{"type":"Feature","geometry":{"type":"Point","coordinates":[5.170790858763377,52.05671537253118]},"properties":{"numisId":1048329,"locationKey":"140000:452000","authority":"Antoninus Pius","dateStart":158,"dateEnd":160}},{"type":"Feature","geometry":{"type":"Point","coordinates":[5.170790858763377,52.05671537253118]},"properties":{"numisId":1048296,"locationKey":"140000:452000","authority":"Commodus","dateStart":181,"dateEnd":182}},{"type":"Feature","geometry":{"type":"Point","coordinates":[5.170790858763377,52.05671537253118]},"properties":{"numisId":1049112,"locationKey":"140000:452000","authority":"Caracalla","dateStart":211,"dateEnd":217}},{"type":"Feature","geometry":{"type":"Point","coordinates":[5.520421858583158,51.95348505751043]},"properties":{"numisId":1035235,"locationKey":"164000:440500","authority":"Trajanus","dateStart":103,"dateEnd":111}},{"type":"Feature","geometry":{"type":"Point","coordinates":[5.520512942475177,51.984943650116094]},"properties":{"numisId":1017359,"locationKey":"164000:444000","authority":"Antoninus Pius","dateStart":138,"dateEnd":161}},{"type":"Feature","geometry":{"type":"Point","coordinates":[5.454980272431381,51.967021428676965]},"properties":{"numisId":1035188,"locationKey":"159500:442000","authority":"Antoninus Pius","dateStart":145,"dateEnd":159}},{"type":"Feature","geometry":{"type":"Point","coordinates":[5.299031119350868,51.92575651865278]},"properties":{"numisId":1133131,"locationKey":"148777:437411","authority":"Elagabalus","dateStart":218,"dateEnd":220}},{"type":"Feature","geometry":{"type":"Point","coordinates":[4.674593257402411,52.5400956379748]},"properties":{"numisId":1006484,"locationKey":"106500:506000","authority":"Antoninus Pius","dateStart":138,"dateEnd":161}},{"type":"Feature","geometry":{"type":"Point","coordinates":[7.026172654431434,52.75120462981678]},"properties":{"numisId":1004107,"locationKey":"265500:530500","authority":"Antoninus Pius","dateStart":140,"dateEnd":143}},{"type":"Feature","geometry":{"type":"Point","coordinates":[7.026172654431434,52.75120462981678]},"properties":{"numisId":1004152,"locationKey":"265500:530500","authority":"Antoninus Pius","dateStart":148,"dateEnd":149}},{"type":"Feature","geometry":{"type":"Point","coordinates":[7.026172654431434,52.75120462981678]},"properties":{"numisId":1004250,"locationKey":"265500:530500","authority":"Commodus","dateStart":186,"dateEnd":189}},{"type":"Feature","geometry":{"type":"Point","coordinates":[5.471778139150082,53.20273220546246]},"properties":{"numisId":1088159,"locationKey":"160500:579500","authority":"Severus Alexander","dateStart":222,"dateEnd":235}},{"type":"Feature","geometry":{"type":"Point","coordinates":[5.9792740685233134,50.88546007951701]},"properties":{"numisId":1125628,"locationKey":"196502:321839","authority":"Antoninus Pius","dateStart":140,"dateEnd":143}},{"type":"Feature","geometry":{"type":"Point","coordinates":[5.9792740685233134,50.88546007951701]},"properties":{"numisId":1125725,"locationKey":"196502:321839","authority":"Maximinus I","dateStart":235,"dateEnd":238}},{"type":"Feature","geometry":{"type":"Point","coordinates":[5.170901126193683,52.03424528947552]},"properties":{"numisId":1015451,"locationKey":"140000:449500","authority":"Commodus","dateStart":180,"dateEnd":192}},{"type":"Feature","geometry":{"type":"Point","coordinates":[4.416733497444148,52.2012050357175]},"properties":{"numisId":1016185,"locationKey":"88500:468500","authority":"Trajanus","dateStart":112,"dateEnd":114}},{"type":"Feature","geometry":{"type":"Point","coordinates":[4.439343839311181,52.16992993733747]},"properties":{"numisId":1029836,"locationKey":"90000:465000","authority":"Trajanus","dateStart":114,"dateEnd":117}},{"type":"Feature","geometry":{"type":"Point","coordinates":[4.416733497444148,52.2012050357175]},"properties":{"numisId":1016202,"locationKey":"88500:468500","authority":"Antonijnse periode","dateStart":138,"dateEnd":180}},{"type":"Feature","geometry":{"type":"Point","coordinates":[4.433946087575778,52.180321875982465]},"properties":{"numisId":1163859,"locationKey":"89646:466161","authority":"Antoninus Pius - Commodus","dateStart":138,"dateEnd":192}},{"type":"Feature","geometry":{"type":"Point","coordinates":[4.424533470220174,52.17879805374479]},"properties":{"numisId":1029863,"locationKey":"89000:466000","authority":"Antoninus Pius","dateStart":141,"dateEnd":145}},{"type":"Feature","geometry":{"type":"Point","coordinates":[4.416929832760743,52.19221822725727]},"properties":{"numisId":1016225,"locationKey":"88500:467500","authority":"Septimius Severus","dateStart":193,"dateEnd":211}},{"type":"Feature","geometry":{"type":"Point","coordinates":[4.433946087575778,52.180321875982465]},"properties":{"numisId":1163845,"locationKey":"89646:466161","authority":"Septimius Severus","dateStart":194,"dateEnd":194}},{"type":"Feature","geometry":{"type":"Point","coordinates":[4.433946087575778,52.180321875982465]},"properties":{"numisId":1156506,"locationKey":"89646:466161","authority":"Septimius Severus","dateStart":196,"dateEnd":211}},{"type":"Feature","geometry":{"type":"Point","coordinates":[4.46375260004063,52.19262216862701]},"properties":{"numisId":1165154,"locationKey":"91702:467503","authority":"Septimius Severus","dateStart":201,"dateEnd":210}},{"type":"Feature","geometry":{"type":"Point","coordinates":[4.433946087575778,52.180321875982465]},"properties":{"numisId":1167875,"locationKey":"89646:466161","authority":"Septimius Severus","dateStart":201,"dateEnd":211}},{"type":"Feature","geometry":{"type":"Point","coordinates":[3.2528462162592073,52.14420727559005]},"properties":{"numisId":1163154,"locationKey":"8759:463867","authority":"Severus Alexander","dateStart":222,"dateEnd":222}},{"type":"Feature","geometry":{"type":"Point","coordinates":[5.744197697265892,51.73730319231765]},"properties":{"numisId":1011658,"locationKey":"179500:416500","authority":"Septimius Severus","dateStart":193,"dateEnd":211}},{"type":"Feature","geometry":{"type":"Point","coordinates":[5.7717506323050545,53.27853139292216]},"properties":{"numisId":1011921,"locationKey":"180500:588000","authority":"Antoninus Pius","dateStart":141,"dateEnd":145}},{"type":"Feature","geometry":{"type":"Point","coordinates":[5.756607038343721,53.260607558960785]},"properties":{"numisId":1028905,"locationKey":"179500:586000","authority":"Marcus Aurelius","dateStart":161}},{"type":"Feature","geometry":{"type":"Point","coordinates":[4.519995016672844,52.15707006181332]},"properties":{"numisId":1017256,"locationKey":"95500:463500","authority":"barbaarse navolging van Antoninus Pius","dateStart":138,"dateEnd":161}},{"type":"Feature","geometry":{"type":"Point","coordinates":[4.512954224335924,52.14353529831717]},"properties":{"numisId":1051522,"locationKey":"95000:462000","authority":"(eind 2e / begin 3e eeuw)","dateStart":175,"dateEnd":225}},{"type":"Feature","geometry":{"type":"Point","coordinates":[4.512954224335924,52.14353529831717]},"properties":{"numisId":1051519,"locationKey":"95000:462000","authority":"Julia Domna","dateStart":193,"dateEnd":211}},{"type":"Feature","geometry":{"type":"Point","coordinates":[4.346865563012217,52.06128446206741]},"properties":{"numisId":1040056,"locationKey":"83500:453000","authority":"Marcus Aurelius Caesar","dateStart":140,"dateEnd":161}},{"type":"Feature","geometry":{"type":"Point","coordinates":[4.351750990689416,52.05876587162591]},"properties":{"numisId":1150803,"locationKey":"83831:452715","authority":"Septimius Severus","dateStart":196,"dateEnd":211}},{"type":"Feature","geometry":{"type":"Point","coordinates":[4.346865563012217,52.06128446206741]},"properties":{"numisId":1040242,"locationKey":"83500:453000","authority":"Severus Alexander","dateStart":222,"dateEnd":235}},{"type":"Feature","geometry":{"type":"Point","coordinates":[4.351750990689416,52.05876587162591]},"properties":{"numisId":1150817,"locationKey":"83831:452715","authority":"Severus Alexander","dateStart":222,"dateEnd":235}},{"type":"Feature","geometry":{"type":"Point","coordinates":[4.351750990689416,52.05876587162591]},"properties":{"numisId":1150818,"locationKey":"83831:452715","authority":"Severus Alexander","dateStart":222,"dateEnd":235}},{"type":"Feature","geometry":{"type":"Point","coordinates":[5.901299737876478,51.24802167667301]},"properties":{"numisId":1141594,"locationKey":"190733:362132","authority":"Hadrianus","dateStart":128,"dateEnd":137}},{"type":"Feature","geometry":{"type":"Point","coordinates":[5.259130095984097,51.76472842853057]},"properties":{"numisId":1114002,"locationKey":"146000:419500","authority":"Trajanus","dateStart":98,"dateEnd":117}},{"type":"Feature","geometry":{"type":"Point","coordinates":[5.302579331652256,51.76926329333975]},"properties":{"numisId":1051282,"locationKey":"149000:420000","authority":"Caracalla","dateStart":198,"dateEnd":217}},{"type":"Feature","geometry":{"type":"Point","coordinates":[5.312609976252774,51.766187361518966]},"properties":{"numisId":1140729,"locationKey":"149692:419657","authority":"Septimius Severus","dateStart":201,"dateEnd":201}},{"type":"Feature","geometry":{"type":"Point","coordinates":[5.346006236302,51.80524143194969]},"properties":{"numisId":1046891,"locationKey":"152000:424000","authority":"Severus Alexander","dateStart":222,"dateEnd":228}},{"type":"Feature","geometry":{"type":"Point","coordinates":[5.346006236302,51.80524143194969]},"properties":{"numisId":1046895,"locationKey":"152000:424000","authority":"Severus Alexander","dateStart":222,"dateEnd":235}},{"type":"Feature","geometry":{"type":"Point","coordinates":[5.498515110643763,51.917554263384865]},"properties":{"numisId":1010254,"locationKey":"162500:436500","authority":"Septimius Severus","dateStart":195,"dateEnd":195}},{"type":"Feature","geometry":{"type":"Point","coordinates":[5.571263398859723,51.93544143550863]},"properties":{"numisId":1016914,"locationKey":"167500:438500","authority":"Elagabalus","dateStart":218,"dateEnd":219}},{"type":"Feature","geometry":{"type":"Point","coordinates":[5.904516459442683,51.831089581923784]},"properties":{"numisId":1081251,"locationKey":"190500:427000","authority":"Hadrianus","dateStart":117,"dateEnd":117}},{"type":"Feature","geometry":{"type":"Point","coordinates":[5.856884845195267,51.89523230221048]},"properties":{"numisId":1131929,"locationKey":"187171:434114","authority":"Hadrianus","dateStart":132,"dateEnd":134}},{"type":"Feature","geometry":{"type":"Point","coordinates":[5.847354658629802,51.916716043178866]},"properties":{"numisId":1104395,"locationKey":"186500:436500","authority":"Antoninus Pius","dateStart":138,"dateEnd":161}},{"type":"Feature","geometry":{"type":"Point","coordinates":[5.803544175214818,51.89440725479315]},"properties":{"numisId":1022143,"locationKey":"183500:434000","authority":"Marcus Aurelius","dateStart":166,"dateEnd":167}},{"type":"Feature","geometry":{"type":"Point","coordinates":[5.884546782186158,51.89524507792504]},"properties":{"numisId":1134084,"locationKey":"189075:434128","authority":"Septimius Severus","dateStart":205,"dateEnd":206}},{"type":"Feature","geometry":{"type":"Point","coordinates":[4.051493252907346,51.94143671673154]},"properties":{"numisId":1014536,"locationKey":"63000:440000","authority":"Antoninus Pius","dateStart":138,"dateEnd":161}},{"type":"Feature","geometry":{"type":"Point","coordinates":[4.168059827297266,51.933717645500145]},"properties":{"numisId":1042031,"locationKey":"71000:439000","authority":"Severus Alexander","dateStart":222,"dateEnd":235}},{"type":"Feature","geometry":{"type":"Point","coordinates":[5.441752129954606,53.121877451893056]},"properties":{"numisId":1023844,"locationKey":"158500:570500","authority":"Lucilla","dateStart":164,"dateEnd":169}},{"type":"Feature","geometry":{"type":"Point","coordinates":[4.777950038220032,53.05741944986684]},"properties":{"numisId":1006322,"locationKey":"114000:563500","authority":"Trajanus","dateStart":114,"dateEnd":117}},{"type":"Feature","geometry":{"type":"Point","coordinates":[4.763230292402971,53.04386382286874]},"properties":{"numisId":1037450,"locationKey":"113000:562000","authority":"Hadrianus","dateStart":117,"dateEnd":138}},{"type":"Feature","geometry":{"type":"Point","coordinates":[4.770556968034865,53.052888263883446]},"properties":{"numisId":1035422,"locationKey":"113500:563000","authority":"Antoninus Pius","dateStart":138,"dateEnd":161}},{"type":"Feature","geometry":{"type":"Point","coordinates":[5.455100846471234,51.91932984966248]},"properties":{"numisId":1131786,"locationKey":"159513:436694","authority":"Marcus Aurelius","dateStart":163,"dateEnd":164}},{"type":"Feature","geometry":{"type":"Point","coordinates":[5.404022499413356,51.87266168821655]},"properties":{"numisId":1089799,"locationKey":"156000:431500","authority":"Septimius Severus","dateStart":202,"dateEnd":210}},{"type":"Feature","geometry":{"type":"Point","coordinates":[5.404022499413356,51.87266168821655]},"properties":{"numisId":1089812,"locationKey":"156000:431500","authority":"Septimius Severus","dateStart":205,"dateEnd":205}},{"type":"Feature","geometry":{"type":"Point","coordinates":[5.965884772772301,50.88863762094438]},"properties":{"numisId":1132909,"locationKey":"195557:322185","authority":"Septimius Severus","dateStart":193,"dateEnd":195}},{"type":"Feature","geometry":{"type":"Point","coordinates":[5.628614733333001,53.14860932926609]},"properties":{"numisId":1034212,"locationKey":"171000:573500","authority":"Trajanus","dateStart":101,"dateEnd":102}},{"type":"Feature","geometry":{"type":"Point","coordinates":[5.628614733333001,53.14860932926609]},"properties":{"numisId":1034213,"locationKey":"171000:573500","authority":"Trajanus","dateStart":103,"dateEnd":111}},{"type":"Feature","geometry":{"type":"Point","coordinates":[5.628614733333001,53.14860932926609]},"properties":{"numisId":1034215,"locationKey":"171000:573500","authority":"Trajanus","dateStart":103,"dateEnd":111}},{"type":"Feature","geometry":{"type":"Point","coordinates":[5.628614733333001,53.14860932926609]},"properties":{"numisId":1034216,"locationKey":"171000:573500","authority":"Trajanus","dateStart":103,"dateEnd":111}},{"type":"Feature","geometry":{"type":"Point","coordinates":[5.6143647052622105,53.21108726627513]},"properties":{"numisId":1112675,"locationKey":"170025:580450","authority":"Hadrianus","dateStart":117,"dateEnd":138}},{"type":"Feature","geometry":{"type":"Point","coordinates":[5.628614733333001,53.14860932926609]},"properties":{"numisId":1034217,"locationKey":"171000:573500","authority":"Hadrianus","dateStart":119,"dateEnd":122}},{"type":"Feature","geometry":{"type":"Point","coordinates":[5.628614733333001,53.14860932926609]},"properties":{"numisId":1034218,"locationKey":"171000:573500","authority":"Hadrianus","dateStart":119,"dateEnd":122}},{"type":"Feature","geometry":{"type":"Point","coordinates":[5.547064959724591,53.247405564831276]},"properties":{"numisId":1131239,"locationKey":"165520:584480","authority":"Antoninus Pius","dateStart":140,"dateEnd":140}},{"type":"Feature","geometry":{"type":"Point","coordinates":[5.606506527605055,53.211101665762456]},"properties":{"numisId":1146775,"locationKey":"169500:580450","authority":"Antoninus Pius","dateStart":140,"dateEnd":143}},{"type":"Feature","geometry":{"type":"Point","coordinates":[5.6589249273488065,53.21593795865123]},"properties":{"numisId":1019478,"locationKey":"173000:581000","authority":"barbaarse navolging van Antonijnse - Severische periode","dateStart":161,"dateEnd":211}},{"type":"Feature","geometry":{"type":"Point","coordinates":[5.62412398929044,53.219416270755815]},"properties":{"numisId":1131647,"locationKey":"170674:581379","authority":"Septimius Severus","dateStart":198,"dateEnd":201}},{"type":"Feature","geometry":{"type":"Point","coordinates":[5.258920354448559,51.83663534812522]},"properties":{"numisId":1035252,"locationKey":"146000:427500","authority":"Trajanus","dateStart":98,"dateEnd":117}},{"type":"Feature","geometry":{"type":"Point","coordinates":[5.386512877193308,51.84593112640103]},"properties":{"numisId":1152474,"locationKey":"154794:428526","authority":"Septimius Severus","dateStart":196,"dateEnd":197}},{"type":"Feature","geometry":{"type":"Point","coordinates":[5.512976881669087,51.890575255700824]},"properties":{"numisId":1035210,"locationKey":"163500:433500","authority":"Caracalla","dateStart":198,"dateEnd":217}},{"type":"Feature","geometry":{"type":"Point","coordinates":[5.345841246595365,51.97152467354312]},"properties":{"numisId":1050684,"locationKey":"152000:442500","authority":"Trajanus","dateStart":112,"dateEnd":114}},{"type":"Feature","geometry":{"type":"Point","coordinates":[5.3093944056025695,52.00745783621162]},"properties":{"numisId":1006671,"locationKey":"149500:446500","authority":"Marcus Aurelius Caesar","dateStart":147,"dateEnd":148}},{"type":"Feature","geometry":{"type":"Point","coordinates":[5.309410676371498,51.9984696992071]},"properties":{"numisId":1040852,"locationKey":"149500:445500","authority":"Severus Alexander","dateStart":222,"dateEnd":235}},{"type":"Feature","geometry":{"type":"Point","coordinates":[5.179436392741553,51.7691062336281]},"properties":{"numisId":1007091,"locationKey":"140500:420000","authority":"Severische periode","dateStart":193,"dateEnd":235}},{"type":"Feature","geometry":{"type":"Point","coordinates":[5.179436392741553,51.7691062336281]},"properties":{"numisId":1007049,"locationKey":"140500:420000","authority":"Severus Alexander","dateStart":222,"dateEnd":235}}]}